BEIDOU-2 IGSO-5         
1 37948U 11073A   26175.65702808 -.00000196  00000+0  00000+0 0  9995
2 37948  47.6633 271.4526 0114223 222.0346 107.5350  1.00272136 53204
LUCH-5A                 
1 37951U 11074B   26181.63402544 -.00000046  00000+0  00000+0 0  9993
2 37951   8.7862  73.6128 0002722  38.7683 201.5027  1.00272761 53183
BEIDOU-2 G5             
1 38091U 12008A   26182.16850231  .00000063  00000+0  00000+0 0  9994
2 38091   3.6073  69.6173 0008414 275.6605  53.4132  1.00277326 52500
BEIDOU-2 M3             
1 38250U 12018A   26180.00176582 -.00000084  00000+0  00000+0 0  9997
2 38250  55.7467 304.4763 0020332 273.2812  86.4840  1.86230042 96164
BEIDOU-2 M4             
1 38251U 12018B   26182.08193010 -.00000069  00000+0  00000+0 0  9996
2 38251  55.6448 303.6193 0011520 274.2645  85.6122  1.86229743 96200
SES-5                   
1 38652U 12036A   26182.15775558  .00000044  00000+0  00000+0 0  9994
2 38652   0.0474 317.1039 0002296 142.3984 241.4886  1.00272231 44598
BEIDOU-2 M6             
1 38775U 12050B   26178.03289958 -.00000080  00000+0  00000+0 0  9993
2 38775  56.5526  62.5688 0013469 358.4918   1.5505  1.86231134 93497
GSAT-10                 
1 38779U 12051B   26182.17326898 -.00000154  00000+0  00000+0 0  9995
2 38779   0.0529 250.4064 0008157 202.2014 332.0195  1.00270977 50231
NAVSTAR 67 (USA 239)    
1 38833U 12053A   26181.77746476  .00000024  00000+0  00000+0 0  9996
2 38833  53.5880 143.0427 0181110  65.9708 295.8698  2.00567780 99712
GSAT0103 (GALILEO-FM3)  
1 38857U 12055A   26180.79397422 -.00000025  00000+0  00000+0 0  9990
2 38857  55.8136 101.1997 0004423 307.4227  52.5245  1.70473507 85221
BEIDOU-2 G6             
1 38953U 12059A   26182.10215101 -.00000168  00000+0  00000+0 0  9999
2 38953   4.4555  73.3789 0009533 329.4837 357.0970  1.00270758 50046
LUCH-5B                 
1 38977U 12061A   26181.44065475 -.00000133  00000+0  00000+0 0  9993
2 38977  10.5117  49.7507 0003001 132.8087 238.3434  1.00272809 49746
COSMOS 2485 [GLONASS-M] 
1 39155U 13019A   26179.64150049 -.00000037  00000+0  00000+0 0  9990
2 39155  65.4258  73.2198 0022897 232.6425 127.1980  2.13103400102529
NAVSTAR 68 (USA 242)    
1 39166U 13023A   26180.64766464 -.00000012  00000+0  00000+0 0  9996
2 39166  54.4943 268.4658 0141408  51.0644 310.2473  2.00563548 96135
IRNSS-1A                
1 39199U 13034A   26181.74010998  .00000060  00000+0  00000+0 0  9992
2 39199  35.7497  63.6762 0017845 181.6086 355.0002  1.00278919 47501
NAVSTAR 69 (USA 248)    
1 39533U 14008A   26182.14514344  .00000033  00000+0  00000+0 0  9995
2 39533  53.6565 148.7505 0084222 231.4486 127.7568  2.00560743 89966
ASTRA 5B                
1 39617U 14011B   26182.16148227  .00000148  00000+0  00000+0 0  9994
2 39617   0.0803 301.1869 0002290 162.2256 257.4417  1.00274383 44808
COSMOS 2492 [GLONASS-M] 
1 39620U 14012A   26181.00812833 -.00000064  00000+0  00000+0 0  9990
2 39620  65.2898 313.4997 0010253 322.0501  37.8715  2.13103439 95517
IRNSS-1B                
1 39635U 14017A   26181.73993664  .00000148  00000+0  00000+0 0  9995
2 39635  28.9013 240.1691 0022885 193.6011 166.4720  1.00271175 44930
LUCH-5V                 
1 39727U 14023A   26182.10431769 -.00000262  00000+0  00000+0 0  9997
2 39727   5.1660  69.6084 0002597  54.9235 286.9362  1.00270582 44494
NAVSTAR 70 (USA 251)    
1 39741U 14026A   26181.42368702 -.00000088  00000+0  00000+0 0  9992
2 39741  56.4914 331.0025 0038108 326.2502  33.4998  2.00560200 88804
COSMOS 2500 [GLONASS-M] 
1 40001U 14032A   26181.64697473 -.00000059  00000+0  00000+0 0  9992
2 40001  65.2240 313.2243 0007794 187.2984 172.6869  2.13106154 93745
NAVSTAR 71 (USA 256)    
1 40105U 14045A   26179.52112597 -.00000052  00000+0  00000+0 0  9997
2 40105  55.3602  88.0134 0033785 118.2932 242.0599  2.00559298 86307
GSAT0201 (GALILEO 5)    
1 40128U 14050A   26180.27461735 -.00000039  00000+0  00000+0 0  9998
2 40128  48.8619 272.9404 1676251 179.8513 180.2703  1.85520280 78549
GSAT0202 (GALILEO 6)    
1 40129U 14050B   26181.60808378 -.00000031  00000+0  00000+0 0  9997
2 40129  48.8773 271.9714 1677698 180.6428 179.1780  1.85520713 80732
IRNSS-1C                
1 40269U 14061A   26179.82070670 -.00000156  00000+0  00000+0 0  9999
2 40269   6.5464  88.7100 0022105   4.4529 202.1283  1.00274876 42803
NAVSTAR 72 (USA 258)    
1 40294U 14068A   26181.88291061 -.00000062  00000+0  00000+0 0  9998
2 40294  56.9970  30.4273 0067311  71.0884 289.7026  2.00577197 85489
COSMOS 2501 [GLONASS-K] 
1 40315U 14075A   26181.43994692  .00000079  00000+0  00000+0 0  9998
2 40315  63.6170 189.9132 0022635 212.5837 147.3119  2.13101453 90136
NAVSTAR 73 (USA 260)    
1 40534U 15013A   26181.52480343  .00000069  00000+0  00000+0 0  9996
2 40534  53.1672 203.6259 0109886  40.2414 320.6261  2.00550649 82096
GSAT0203 (GALILEO 7)    
1 40544U 15017A   26181.70420067 -.00000084  00000+0  00000+0 0  9996
2 40544  56.7818 341.2277 0002364 261.1627  98.8017  1.70476490 69433
GSAT0204 (GALILEO 8)    
1 40545U 15017B   26181.37344972 -.00000085  00000+0  00000+0 0  9991
2 40545  56.7889 341.2552 0002318 237.2395 122.7292  1.70475898 32470
